[{"OBJECT_NAME":"STARLINK-3350","OBJECT_ID":"2022-005B","EPOCH":"2026-03-09T21:53:58.799904","MEAN_MOTION":15.08834659,"ECCENTRICITY":0.00011869,"INCLINATION":53.217,"RA_OF_ASC_NODE":288.1219,"ARG_OF_PERICENTER":89.521,"MEAN_ANOMALY":270.5918,"EPHEMERIS_TYPE":0,"CLASSIFICATION_TYPE":"U","NORAD_CAT_ID":51105,"ELEMENT_SET_NO":999,"REV_AT_EPOCH":22891,"BSTAR":0.00017716274,"MEAN_MOTION_DOT":2.532e-5,"MEAN_MOTION_DDOT":0},{"OBJECT_NAME":"POSAT-2","OBJECT_ID":"2025-009DR","EPOCH":"2026-03-09T23:15:20.314368","MEAN_MOTION":15.10404492,"ECCENTRICITY":0.00077103,"INCLINATION":97.4906,"RA_OF_ASC_NODE":146.0095,"ARG_OF_PERICENTER":126.4226,"MEAN_ANOMALY":233.7715,"EPHEMERIS_TYPE":0,"CLASSIFICATION_TYPE":"U","NORAD_CAT_ID":63488,"ELEMENT_SET_NO":999,"REV_AT_EPOCH":5165,"BSTAR":0.0010942248,"MEAN_MOTION_DOT":0.00017957,"MEAN_MOTION_DDOT":0}]
